TROLL                   
1 62658U 25009BB  26068.22522958  .00013174  00000+0  48220-3 0  9994
2 62658  97.3932 150.7169 0001816  59.1850 300.9568 15.28164315118170
STARLINK-33789          
1 63657U 25083Z   26068.20119409  .00039210  00000+0  14268-2 0  9990
2 63657  43.0032   7.8350 0001706 282.1134  77.9527 15.27579767 50029
