[{"OBJECT_NAME":"TROLL","OBJECT_ID":"2025-009BB","EPOCH":"2026-03-09T05:24:19.835712","MEAN_MOTION":15.28164315,"ECCENTRICITY":0.00018165,"INCLINATION":97.3932,"RA_OF_ASC_NODE":150.7169,"ARG_OF_PERICENTER":59.185,"MEAN_ANOMALY":300.9568,"EPHEMERIS_TYPE":0,"CLASSIFICATION_TYPE":"U","NORAD_CAT_ID":62658,"ELEMENT_SET_NO":999,"REV_AT_EPOCH":11817,"BSTAR":0.00048220305,"MEAN_MOTION_DOT":0.00013174,"MEAN_MOTION_DDOT":0},{"OBJECT_NAME":"STARLINK-33789","OBJECT_ID":"2025-083Z","EPOCH":"2026-03-09T04:49:43.169376","MEAN_MOTION":15.27579767,"ECCENTRICITY":0.00017063,"INCLINATION":43.0032,"RA_OF_ASC_NODE":7.835,"ARG_OF_PERICENTER":282.1134,"MEAN_ANOMALY":77.9527,"EPHEMERIS_TYPE":0,"CLASSIFICATION_TYPE":"U","NORAD_CAT_ID":63657,"ELEMENT_SET_NO":999,"REV_AT_EPOCH":5002,"BSTAR":0.0014268303,"MEAN_MOTION_DOT":0.0003921,"MEAN_MOTION_DDOT":0}]
